[{"OBJECT_NAME":"STARLINK-1815","OBJECT_ID":"2020-073AV","EPOCH":"2026-03-10T00:00:02.999808","MEAN_MOTION":15.68490192,"ECCENTRICITY":0.00037944,"INCLINATION":53.0443,"RA_OF_ASC_NODE":200.7345,"ARG_OF_PERICENTER":346.009,"MEAN_ANOMALY":244.5885,"EPHEMERIS_TYPE":0,"CLASSIFICATION_TYPE":"U","NORAD_CAT_ID":46713,"ELEMENT_SET_NO":999,"REV_AT_EPOCH":553,"BSTAR":9.8093788e-5,"MEAN_MOTION_DOT":0.00010738,"MEAN_MOTION_DDOT":0},{"OBJECT_NAME":"STARLINK-11120 [DTC]","OBJECT_ID":"2024-112E","EPOCH":"2026-03-09T17:10:07.636224","MEAN_MOTION":15.69698178,"ECCENTRICITY":0.00010235,"INCLINATION":53.1588,"RA_OF_ASC_NODE":266.2437,"ARG_OF_PERICENTER":59.3083,"MEAN_ANOMALY":300.8036,"EPHEMERIS_TYPE":0,"CLASSIFICATION_TYPE":"U","NORAD_CAT_ID":60042,"ELEMENT_SET_NO":999,"REV_AT_EPOCH":10098,"BSTAR":5.302414e-6,"MEAN_MOTION_DOT":5.4e-7,"MEAN_MOTION_DDOT":0}]
